SL-12 R/B(2)            
1 15772U 85042D   26196.37895626  .00000007  00000+0  24485-4 0  9994
2 15772  71.1066 177.9532 0037330 285.9117 179.5575 14.22010889132547
SL-14 R/B               
1 15945U 85069B   26196.57517674  .00000215  00000+0  21391-4 0  9995
2 15945  82.5262 264.6689 0020062 126.1164 234.1914 14.86535262191831
SL-16 R/B               
1 16182U 85097B   26196.52201003  .00000167  00000+0  10757-3 0  9990
2 16182  71.0007 231.4247 0005658  51.0311  59.0637 14.16612922105339
SL-14 R/B               
1 16496U 86006B   26196.85304403  .00000240  00000+0  22690-4 0  9995
2 16496  82.5283 139.1386 0075522 206.6582 153.0745 14.86968617168250
COSMOS 1743             
1 16719U 86034A   26196.73165926  .00043247  00000+0  36371-3 0  9990
2 16719  82.5282 298.3228 0005393 175.2370 184.8944 15.69664907200263
SL-14 R/B               
1 16792U 86046B   26196.84439505  .00000230  00000+0  23525-4 0  9996
2 16792  82.4839 319.0973 0023582 160.9114 199.2992 14.85690845145433
SL-14 R/B               
1 16882U 86055B   26196.84683986  .00000210  00000+0  21345-4 0  9996
2 16882  82.5204   6.1836 0017308 267.9154 213.1188 14.85740530138390
AJISAI (EGS)            
1 16908U 86061A   26196.89033859 -.00000078  00000+0  13959-3 0  9999
2 16908  50.0102  59.1339 0011082 253.6851 198.2186 12.44516692483961
SL-14 R/B               
1 17567U 87024B   26196.83120868  .00000224  00000+0  22630-4 0  9991
2 17567  82.5298 332.3261 0017871 191.6251 168.4555 14.86231953107162
COSMOS 1833             
1 17589U 87027A   26196.84871788  .00000074  00000+0  65171-4 0  9993
2 17589  70.9212  56.6267 0024285   7.6445 352.5041 14.13066792 28427
SL-16 R/B               
1 17590U 87027B   26196.87326884  .00000136  00000+0  91150-4 0  9995
2 17590  71.0033   6.3769 0007144 280.9186  79.1134 14.17173655 33505
SL-14 R/B               
1 17912U 87038B   26196.89217088  .00000212  00000+0  21594-4 0  9992
2 17912  82.5012 176.0334 0020849 100.0663 260.2907 14.85461742 98266
COSMOS 1844             
1 17973U 87041A   26196.81687418  .00000063  00000+0  57843-4 0  9993
2 17973  70.8998 123.9185 0031292 194.3851 165.6383 14.14580912 21704
SL-14 R/B               
1 18153U 87055B   26196.50966260  .00000203  00000+0  20505-4 0  9991
2 18153  82.4971 228.5287 0019397 314.0050  45.9567 14.85727162 88912
COSMOS 1867             
1 18187U 87060A   26196.70631789 -.00000071  00000+0  11161-4 0  9993
2 18187  65.0119 308.1886 0017163 282.0240  77.8921 14.31518536 38269
SL-14 R/B               
1 18749U 88001B   26196.17693202  .00000200  00000+0  20232-4 0  9994
2 18749  82.5120  75.4399 0018157 171.8783 188.2731 14.85626773 60952
COSMOS 1933             
1 18958U 88020A   26196.30143369  .00001738  00000+0  81813-4 0  9995
2 18958  82.5142 124.5930 0005884 107.0047 253.1832 15.18888716 69599
SL-3 R/B                
1 19046U 88032B   26196.86213948  .00002036  00000+0  94133-4 0  9990
2 19046  97.5273 179.8803 0026558 143.4766 216.8287 15.21034372 71581
SL-16 R/B               
1 19120U 88039B   26196.86938567 -.00000057  00000+0 -41994-5 0  9992
2 19120  71.0126 157.5094 0020580 148.2899 211.9471 14.19631393976578
COSMOS 1953             
1 19210U 88050A   26196.53070526  .00003934  00000+0  13270-3 0  9990
2 19210  82.5058  29.4409 0011512  38.9055 321.3012 15.30340030 57329
SL-8 R/B                
1 19257U 88053B   26196.51818384  .00000121  00000+0  47685-4 0  9997
2 19257  74.0458 236.8337 0019744  22.2710  83.1516 14.38978369994986
COSMOS 1975             
1 19573U 88093A   26196.87486997  .00003422  00000+0  11762-3 0  9995
2 19573  82.5199 348.8348 0012510  80.3706 279.8947 15.29666698 38995
SL-14 R/B               
1 19574U 88093B   26196.77187124  .00000188  00000+0  18801-4 0  9993
2 19574  82.5316 281.8106 0019974 338.3546 142.1508 14.85760262 20038
SL-16 R/B               
1 19650U 88102B   26196.54150134 -.00000088  00000+0 -20220-4 0  9994
2 19650  70.9977 242.4784 0014282 185.0061 175.0921 14.16166607944999
INTERCOSMOS 24          
1 20261U 89080A   26196.76593183  .00000133  00000+0  35204-4 0  9996
2 20261  82.6050  21.0427 1187160 355.6215   3.5164 12.59692188682928
SL-14 R/B               
1 20262U 89080C   26196.16255293  .00000072  00000+0  20996-4 0  9992
2 20262  82.5934  91.3331 1228701 253.3658  92.9270 12.50578472676085
DELTA 1 R/B             
1 20323U 89089B   26196.77384191  .00000128  00000+0  40122-4 0  9991
2 20323  97.0635  23.7574 0070635  78.1906 282.7204 14.50748041914308
ARIANE 40 R/B           
1 20443U 90005H   26196.74324380  .00000099  00000+0  44804-4 0  9993
2 20443  98.2945 253.4691 0010306 172.4036 187.7311 14.39940851911233
DELTA 2 R/B(1)          
1 20453U 90008B   26195.89453631  .00079925  00000+0  48965-3 0  9999
2 20453  35.5999  49.6579 0059150  13.1124 347.1141 15.73550372946062
COSMOS 2058             
1 20465U 90010A   26196.78933044  .00001709  00000+0  97362-4 0  9996
2 20465  82.4672 281.1461 0007969 247.4979 112.5408 15.12158485961595
SL-14 R/B               
1 20466U 90010B   26196.35891248  .00000181  00000+0  18976-4 0  9996
2 20466  82.5035 147.4888 0018393 236.7102 123.2352 14.83663108947411
