OBJECT_NAME,OBJECT_ID,EPOCH,MEAN_MOTION,ECCENTRICITY,INCLINATION,RA_OF_ASC_NODE,ARG_OF_PERICENTER,MEAN_ANOMALY,EPHEMERIS_TYPE,CLASSIFICATION_TYPE,NORAD_CAT_ID,ELEMENT_SET_NO,REV_AT_EPOCH,BSTAR,MEAN_MOTION_DOT,MEAN_MOTION_DDOT
SL-12 R/B(2),1985-042D,2026-07-15T09:05:41.820864,14.22010889,.00373303,71.1066,177.9532,285.9117,179.5575,0,U,15772,999,13254,.24485107E-4,.7E-7,0
SL-14 R/B,1985-069B,2026-07-15T13:48:15.270336,14.86535262,.0020062,82.5262,264.6689,126.1164,234.1914,0,U,15945,999,19183,.21391E-4,.215E-5,0
SL-16 R/B,1985-097B,2026-07-15T12:31:41.666592,14.16612922,.00056585,71.0007,231.4247,51.0311,59.0637,0,U,16182,999,10533,.1075696E-3,.167E-5,0
SL-14 R/B,1986-006B,2026-07-15T20:28:23.004192,14.86968617,.0075522,82.5283,139.1386,206.6582,153.0745,0,U,16496,999,16825,.2269E-4,.24E-5,0
COSMOS 1743,1986-034A,2026-07-15T17:33:35.360064,15.69664907,.0005393,82.5282,298.3228,175.2370,184.8944,0,U,16719,999,20026,.36371E-3,.43247E-3,0
SL-14 R/B,1986-046B,2026-07-15T20:15:55.732320,14.85690845,.0023582,82.4839,319.0973,160.9114,199.2992,0,U,16792,999,14543,.23525E-4,.23E-5,0
SL-14 R/B,1986-055B,2026-07-15T20:19:26.963904,14.85740530,.0017308,82.5204,6.1836,267.9154,213.1188,0,U,16882,999,13839,.21345E-4,.21E-5,0
AJISAI (EGS),1986-061A,2026-07-15T21:22:05.254176,12.44516692,.0011082,50.0102,59.1339,253.6851,198.2186,0,U,16908,999,48396,.13959E-3,-.78E-6,0
SL-14 R/B,1987-024B,2026-07-15T19:56:56.429952,14.86231953,.0017871,82.5298,332.3261,191.6251,168.4555,0,U,17567,999,10716,.2263E-4,.224E-5,0
COSMOS 1833,1987-027A,2026-07-15T20:22:09.224832,14.13066792,.0024285,70.9212,56.6267,7.6445,352.5041,0,U,17589,999,2842,.65171E-4,.74E-6,0
SL-16 R/B,1987-027B,2026-07-15T20:57:30.427776,14.17173655,.0007144,71.0033,6.3769,280.9186,79.1134,0,U,17590,999,3350,.9115E-4,.136E-5,0
SL-14 R/B,1987-038B,2026-07-15T21:24:43.564032,14.85461742,.0020849,82.5012,176.0334,100.0663,260.2907,0,U,17912,999,9826,.21594E-4,.212E-5,0
COSMOS 1844,1987-041A,2026-07-15T19:36:17.929152,14.14580912,.0031292,70.8998,123.9185,194.3851,165.6383,0,U,17973,999,2170,.57843E-4,.63E-6,0
SL-14 R/B,1987-055B,2026-07-15T12:13:54.848640,14.85727162,.00193974,82.4971,228.5287,314.0050,45.9567,0,U,18153,999,8891,.20504594E-4,.203E-5,0
COSMOS 1867,1987-060A,2026-07-15T16:57:05.865696,14.31518536,.0017163,65.0119,308.1886,282.0240,77.8921,0,U,18187,999,3826,.11161E-4,-.71E-6,0
SL-14 R/B,1988-001B,2026-07-15T04:14:46.926528,14.85626773,.00181579,82.5120,75.4399,171.8783,188.2731,0,U,18749,999,6095,.20231687E-4,.2E-5,0
COSMOS 1933,1988-020A,2026-07-15T07:14:03.870816,15.18888716,.00058846,82.5142,124.5930,107.0047,253.1832,0,U,18958,999,6959,.81813469E-4,.1738E-4,0
SL-3 R/B,1988-032B,2026-07-15T20:41:28.851072,15.21034372,.0026558,97.5273,179.8803,143.4766,216.8287,0,U,19046,999,7158,.94133E-4,.2036E-4,0
SL-16 R/B,1988-039B,2026-07-15T20:51:54.921888,14.19631393,.002058,71.0126,157.5094,148.2899,211.9471,0,U,19120,999,97657,-.41994E-5,-.57E-6,0
COSMOS 1953,1988-050A,2026-07-15T12:44:12.934464,15.30340030,.00115127,82.5058,29.4409,38.9055,321.3012,0,U,19210,999,5732,.13270204E-3,.3934E-4,0
SL-8 R/B,1988-053B,2026-07-15T12:26:11.083776,14.38978369,.00197449,74.0458,236.8337,22.2710,83.1516,0,U,19257,999,99498,.47685077E-4,.121E-5,0
COSMOS 1975,1988-093A,2026-07-15T20:59:48.765408,15.29666698,.001251,82.5199,348.8348,80.3706,279.8947,0,U,19573,999,3899,.11762E-3,.3422E-4,0
SL-14 R/B,1988-093B,2026-07-15T18:31:29.675136,14.85760262,.0019974,82.5316,281.8106,338.3546,142.1508,0,U,19574,999,2003,.18801E-4,.188E-5,0
SL-16 R/B,1988-102B,2026-07-15T12:59:45.715776,14.16166607,.0014282,70.9977,242.4784,185.0061,175.0921,0,U,19650,999,94499,-.20219897E-4,-.88E-6,0
INTERCOSMOS 24,1989-080A,2026-07-15T18:22:56.510112,12.59692188,.118716,82.6050,21.0427,355.6215,3.5164,0,U,20261,999,68292,.35204E-4,.133E-5,0
SL-14 R/B,1989-080C,2026-07-15T03:54:04.573152,12.50578472,.12287011,82.5934,91.3331,253.3658,92.9270,0,U,20262,999,67608,.20995669E-4,.72E-6,0
DELTA 1 R/B,1989-089B,2026-07-15T18:34:19.941024,14.50748041,.0070635,97.0635,23.7574,78.1906,282.7204,0,U,20323,999,91430,.40122E-4,.128E-5,0
ARIANE 40 R/B,1990-005H,2026-07-15T17:50:16.264320,14.39940851,.0010306,98.2945,253.4691,172.4036,187.7311,0,U,20443,999,91123,.44804E-4,.99E-6,0
DELTA 2 R/B(1),1990-008B,2026-07-14T21:28:07.937184,15.73550372,.005915,35.5999,49.6579,13.1124,347.1141,0,U,20453,999,94606,.48965E-3,.79925E-3,0
COSMOS 2058,1990-010A,2026-07-15T18:56:38.150016,15.12158485,.0007969,82.4672,281.1461,247.4979,112.5408,0,U,20465,999,96159,.97362E-4,.1709E-4,0
SL-14 R/B,1990-010B,2026-07-15T08:36:50.038272,14.83663108,.00183932,82.5035,147.4888,236.7102,123.2352,0,U,20466,999,94741,.18975556E-4,.181E-5,0
